#dP2021  7  2  0  0  0.00000000     289 ORBIT IGS14 BHN ESOC                    
## 2164 432000.00000000   300.00000000 59397 0.0000000000000                    
+  115   G13G28G21G22G07G05G20G31G17G15G16G29G12G19G02G25G01                    
+        G30G24G27G06G09G03G32G26G08G10G04G18G23G14G11R09R11                    
+        R20R19R13R01R22R16R08R03R07R02R17R18R21R05R15R12R04                    
+        R24E11E12E19E18E14E26E24E30E08E09E01E02E07E03E04E05                    
+        E21E25E27E31E36E13E15E33C11C12C14C19C20C27C28C22C21                    
+        C29C30C23C24C26C25C32C33C35C34C36C37C46C45C44C43C41                    
+        C42C06C07C09C10C13C16C38C39C40J01J02J03  0  0  0  0                    
++         4  5  5  5  5  5  4  4  5  4  5  4  5  5  5  5  5                    
++         5  4  5  4  5  5  5  5  5  5  5  5  5  5  5  7  5                    
++         7  5  6  6  6  5  5  5  5  5  5  5  6  5  5  6  5                    
++         5  5  5  5  4  5  5  5  5  4  5  5  5  5  5  5  5                    
++         5  5  5  5  5  5  4  5  5  5  5  5  5  4  4  5  5                    
++         6  5  5  4  5  5  5  5  6  4  5  5  6  6  5  5  6                    
++         5  5  6  6  6  7  6  8  6  7  7  7  6  0  0  0  0                    
%c M  cc GPS ccc cccc cccc cccc cccc ccccc ccccc ccccc ccccc                    
%c cc cc ccc ccc cccc cccc cccc cccc ccccc ccccc ccccc ccccc                    
%f  0.0000000  0.000000000  0.00000000000  0.000000000000000                    
%f  0.0000000  0.000000000  0.00000000000  0.000000000000000                    
%i    0    0    0    0      0      0      0      0         0                    
%i    0    0    0    0      0      0      0      0         0                    
/* CCCCCCCCCCCCCCCCCCCCCCCCCCCCCCCCCCCCCCCCCCCCCCCCCCCCCCCCCCCCCCCCCCCCCCCCCCCCC
/* CCCCCCCCCCCCCCCCCCCCCCCCCCCCCCCCCCCCCCCCCCCCCCCCCCCCCCCCCCCCCCCCCCCCCCCCCCCCC
/* CCCCCCCCCCCCCCCCCCCCCCCCCCCCCCCCCCCCCCCCCCCCCCCCCCCCCCCCCCCCCCCCCCCCCCCCCCCCC
/* PCV:IGS14      OL/AL:EOT11A   NONE     YN ORB:CoN CLK:CoN                    
*  2021  7  2  6 35  0.00000000                                                 
PG13  -4634.305815  17879.482843 -19167.588462    152.303039                    
PG28 -10408.217866  17891.706668 -16203.882746    544.944486                    
PG21 -16957.738689 -15385.523774 -13174.505555    128.707112                    
PG22 -10295.371354 -23845.836623   6229.971709   -573.979205                    
PG07 -25314.321256  -5959.897247  -6201.910774    192.532141                    
PG05   6263.011104  25581.744567  -2749.664118    -46.662108                    
PG20   3492.639576  25970.104123   5085.931985    520.602511                    
PG31  10617.324011 -11741.826553  21295.653156   -126.312790                    
PG17 -22763.520252  13388.402117  -2412.276387    467.401468                    
PG15   7350.356445  14834.024085 -21090.191480   -138.409806                    
PG16    543.211408 -26180.684606   2314.131974   -350.455766                    
PG29  20817.350609   -541.939031  16468.154574   -373.536016                    
PG12  10243.942882  20505.248300  13282.784891    -62.901304                    
PG19 -19841.252970  16521.077622   5632.142279     20.904098                    
PG02      1.392919  16000.188847  21846.790752   -616.632314                    
PG25  15070.599802   9256.065021  19632.299333    166.184273                    
PG01 -21384.751184 -14430.975606  -7303.201558    640.845570                    
PG30 -20280.368179   4377.837508 -16646.894517   -445.915430                    
PG24  18650.862401  15366.885008 -11709.771714    157.720979                    
PG27   6182.926160 -19332.527147 -17110.723372   -156.384628                    
PG06 -12031.976943  10356.180731  21360.786235     34.353119                    
PG09 -21375.085548   2954.561498  15443.446099   -353.770511                    
PG03 -12196.293010 -18919.340141  14095.282084   -208.378567                    
PG32  21101.368067 -15962.765349   -480.362264     16.121199                    
PG26   5567.775848 -22376.159918  12879.696874    105.543198                    
PG08  -4853.484589 -14965.657510 -21365.749890    -27.250738                    
PG10  12338.739630 -11851.556033 -20123.591609   -153.791397                    
PG04 -14278.856201  -7857.064947  20992.187082   -201.422382                    
PG18  24532.718262   3584.667974  -9642.065869    343.634452                    
PG23  15332.715106    738.871665 -21700.839146     90.016988                    
PG14 -13051.732582  11806.196744 -19888.419394     57.015398                    
PG11  -1300.814137  15901.921638  21217.355705      4.121581                    
PR09   -863.931958  15698.584512 -20042.431334      0.830048                    
PR11  17321.201723  15549.593320  10428.717670    -17.470292                    
PR20 -13822.789267   9276.086656  19342.645595    -51.802815                    
PR19 -25312.717801   2248.922067   2167.207580   -149.938893                    
PR13   1177.010992 -15114.033551  20504.707143    -57.085799                    
PR01  14280.164137 -10296.880226 -18461.497460     81.738647                    
PR22  21780.344668   4076.975347  12528.743399   -120.564024                    
PR16 -12270.122895   1659.986846 -22300.859160    -17.239296                    
PR08   9496.047799   5457.667724 -22979.325181    -59.752707                    
PR03    827.822239 -19795.010318  16081.781399     38.740716                    
PR07   -521.471217  19486.830441 -16436.270798    -42.154632                    
PR02  10988.318556 -22985.563888   -101.823963    484.521195                    
PR17  -6108.197315  -9859.110191 -22713.048255    437.558349                    
PR18 -21283.169732  -4415.219201 -13384.082847     82.011657                    
PR21   7486.581998   9551.011189  22433.030331   -220.787646                    
PR05 -14574.733264  11840.942730  17288.083904     74.597360                    
PR15 -17161.396374 -15433.034497 -10844.546400    102.937900                    
PR12  12810.937801   -101.144267  22089.640456    241.916087                    
PR04  -9388.992335  -5477.027225  23105.874188     93.909839                    
PR24  12936.143653 -10037.192274 -19556.235158     48.815495                    
PE11 -21770.613343   7817.246842  18462.557709   5775.658370                    
PE12 -29088.787465  -5466.266328    825.117560   5131.619040                    
PE19  -6416.223889 -17156.128220  23262.570154    316.577917                    
PE18   1062.693647 -23199.025333 -22873.645579  -1628.172704                    
PE14  -3717.336870  17507.453222  15099.393052  -1485.998387                    
PE26   1147.954931 -16347.136794 -24653.911827   1626.979940                    
PE24 -12483.091334  13134.133227 -23417.472244   -985.683768                    
PE30  18170.816284   8886.607405  21607.793183   2817.321844                    
PE08  21497.863870  -2923.049312 -20136.966811   5976.886228                    
PE09 -21775.696854  19498.669172   4617.836695   5614.333945                    
PE01 -13351.297397 -25343.005107  -7458.820334  -1141.387837                    
PE02  13422.240988  25272.984601   7589.693350    230.069440                    
PE07  21947.905272 -19295.505527  -4740.851308   -556.730225                    
PE03   8555.652322  15541.406712 -23688.696827   -448.181754                    
PE04 -21464.178830   2380.911838  20252.243007   -804.585519                    
PE05  -9608.632882  24648.449435 -13266.282750   -268.433468                    
PE21  -1416.630212 -27623.973361  10546.968807   -673.909864                    
PE25   1274.122613  27557.893354 -10718.431789   -538.705343                    
PE27  11909.315480 -14040.306421  23183.181227    -66.690955                    
PE31 -18129.084777  -7699.193360 -22086.792196   -482.811712                    
PE36  -2053.169999  16011.158642  24806.897799   -228.782890                    
PE13  22052.510378  -7587.625459 -18229.264983    418.491233                    
PE15  29099.833859   5339.382173   -872.508750    805.705240                    
PE33 -19000.009328 -15094.496398 -16958.236745   -468.290497                    
PC11 -21720.775786  13222.952276  11497.939100    433.384870                    
PC12 -27060.470067   3011.163174  -6034.622233    824.933810                    
PC14 -14113.574120  20629.260677  12371.283392    845.185561                    
PC19   9049.663762 -26190.531936  -3380.117634    893.688653                    
PC20  16337.153337 -13604.151240 -18077.763140   -857.565133                    
PC27  23768.256659   3858.124716  14068.891657    557.592970                    
PC28   7250.159222  14380.984220  22787.929016    -55.567779                    
PC22  -3657.299346 -24030.796155  13741.817299   -948.710485                    
PC21 -14189.850818  -7900.863228  22714.510531   -935.105156                    
PC29  12849.958667 -16951.650374 -18074.467296    413.843371                    
PC30  26113.686994  -9536.735429  -2311.492406    472.609297                    
PC23  13297.113245  22683.093698  -9332.090700   -955.550852                    
PC24 -18886.655105   1857.865213 -20453.788203   -919.457590                    
PC26 -22952.159711 -13334.118773  -8563.850456    884.550849                    
PC25  -2869.329731  18038.354224 -21104.122822   -892.252644                    
PC32  14249.982309   7775.625479 -22679.986329   -924.152613                    
PC33  -8983.623022  26175.785049   3502.512569   -939.720180                    
PC35  -7383.876422 -14332.384842 -22789.811779   -206.540113                    
PC34 -25919.882295   9917.217718   3021.296009   -637.494088                    
PC36   3668.813510 -17736.542999  21260.938210   -730.189908                    
PC37  22534.524876  14545.697834   7752.467052   -868.674400                    
PC46  18240.603902  -2785.213066  20955.009252    197.904435                    
PC45 -13460.825554 -22615.279097   9267.612831    482.436282                    
PC44 -23821.418767  -3282.548885 -14199.629883    268.491854                    
PC43 -13472.866455  16893.241792  17659.053655   -802.611079                    
PC41   3501.633177  24190.151046 -13415.276216   -953.996251                    
PC42 -16515.773021  12735.233161  18576.358175   -916.335880                    
PC06 -24170.953139  26040.320484 -22601.147283    573.047292                    
PC07 -12688.756209  38063.281222 -11787.278209    166.033320                    
PC09  -8904.892662  26370.713818 -31488.991477    405.077903                    
PC10  -3009.268237  41787.221153     96.501170    -23.327259                    
PC13   5837.644945  28764.181180  30466.098504    321.284481                    
PC16 -21422.700276  26506.128629 -24839.445561   -936.147755                    
PC38  -5175.252442  24718.174442  33791.530446    158.947163                    
PC39 -18447.452039  28007.781257 -25629.213147     32.090173                    
PC40 -10180.971818  40652.311269  -3814.321881    176.497790                    
PJ01 -32305.749085  25372.523010  14343.237882   -407.011527                    
PJ02 -19902.049971  23346.886643 -24369.091094     -0.534499                    
PJ03 -29265.281976  27676.636765  17824.996526     -9.771909                    
EOF                                                                             
